{"type": "FeatureCollection", "features": [ {"type": "Feature", "properties": {"norad_id": 37550, "name": "IRIDIUM 33 DEB", "group": "iridium-33-debris", "lat": -10.414117335296856, "lon": 24.776204334086145, "alt_km": 676.8400888415126, "timestamp": "2025-12-09T04:51:47.877475+00:00", "meta": {"OBJECT_NAME": "IRIDIUM 33 DEB", "OBJECT_ID": "1997-051XK", "EPOCH": "2025-12-06T21:15:18.690336", "MEAN_MOTION": 14.67089693, "ECCENTRICITY": 0.00053572, "INCLINATION": 86.377, "RA_OF_ASC_NODE": 26.47, "ARG_OF_PERICENTER": 124.88, "MEAN_ANOMALY": 235.2918, "EPHEMERIS_TYPE": 0, "CLASSIFICATION_TYPE": "U", "NORAD_CAT_ID": 37550, "ELEMENT_SET_NO": 999, "REV_AT_EPOCH": 86247, "BSTAR": 0.0020360196, "MEAN_MOTION_DOT": 0.00011461, "MEAN_MOTION_DDOT": 0}, "tle": {"line1": "1 37550U 97051XK  25340.88563299  .00011461  00000+0  20360-2 0  9991", "line2": "2 37550  86.3770  26.4700 0005357 124.8800 235.2918 14.67089693862475"}}, "geometry": {"type": "Point", "coordinates": [24.776204334086145, -10.414117335296856]}}, {"type": "Feature", "properties": {"norad_id": 37562, "name": "IRIDIUM 33 DEB", "group": "iridium-33-debris", "lat": -25.538208588358447, "lon": 43.40708181308195, "alt_km": 725.7395569780383, "timestamp": "2025-12-09T04:51:47.877485+00:00", "meta": {"OBJECT_NAME": "IRIDIUM 33 DEB", "OBJECT_ID": "1997-051XX", "EPOCH": "2025-12-07T12:03:22.182048", "MEAN_MOTION": 14.56401675, "ECCENTRICITY": 0.00267128, "INCLINATION": 86.3743, "RA_OF_ASC_NODE": 45.8843, "ARG_OF_PERICENTER": 124.2165, "MEAN_ANOMALY": 301.4124, "EPHEMERIS_TYPE": 0, "CLASSIFICATION_TYPE": "U", "NORAD_CAT_ID": 37562, "ELEMENT_SET_NO": 999, "REV_AT_EPOCH": 86252, "BSTAR": 0.0018073618, "MEAN_MOTION_DOT": 8.081e-05, "MEAN_MOTION_DDOT": 0}, "tle": {"line1": "1 37562U 97051XX  25341.50234007  .00008081  00000+0  18074-2 0  9999", "line2": "2 37562  86.3743  45.8843 0026712 124.2165 301.4124 14.56401675862524"}}, "geometry": {"type": "Point", "coordinates": [43.40708181308195, -25.538208588358447]}}, {"type": "Feature", "properties": {"norad_id": 37565, "name": "IRIDIUM 33 DEB", "group": "iridium-33-debris", "lat": 1.4411067132398279, "lon": -168.97261201043068, "alt_km": 722.6579657087468, "timestamp": "2025-12-09T04:51:47.877494+00:00", "meta": {"OBJECT_NAME": "IRIDIUM 33 DEB", "OBJECT_ID": "1997-051YA", "EPOCH": "2025-12-07T09:01:39.007488", "MEAN_MOTION": 14.51484742, "ECCENTRICITY": 0.00152828, "INCLINATION": 86.3495, "RA_OF_ASC_NODE": 11.9147, "ARG_OF_PERICENTER": 99.6797, "MEAN_ANOMALY": 260.6136, "EPHEMERIS_TYPE": 0, "CLASSIFICATION_TYPE": "U", "NORAD_CAT_ID": 37565, "ELEMENT_SET_NO": 999, "REV_AT_EPOCH": 65759, "BSTAR": 0.00094060687, "MEAN_MOTION_DOT": 3.783e-05, "MEAN_MOTION_DDOT": 0}, "tle": {"line1": "1 37565U 97051YA  25341.37614592  .00003783  00000+0  94061-3 0  9993", "line2": "2 37565  86.3495  11.9147 0015282  99.6797 260.6136 14.51484742657597"}}, "geometry": {"type": "Point", "coordinates": [-168.97261201043068, 1.4411067132398279]}}, {"type": "Feature", "properties": {"norad_id": 38017, "name": "IRIDIUM 33 DEB", "group": "iridium-33-debris", "lat": -60.170603370929804, "lon": 161.3541394862785, "alt_km": 802.0882217079643, "timestamp": "2025-12-09T04:51:47.877505+00:00", "meta": {"OBJECT_NAME": "IRIDIUM 33 DEB", "OBJECT_ID": "1997-051YD", "EPOCH": "2025-12-08T05:56:18.042720", "MEAN_MOTION": 14.48737488, "ECCENTRICITY": 0.00921036, "INCLINATION": 86.3413, "RA_OF_ASC_NODE": 168.1763, "ARG_OF_PERICENTER": 118.1049, "MEAN_ANOMALY": 242.9503, "EPHEMERIS_TYPE": 0, "CLASSIFICATION_TYPE": "U", "NORAD_CAT_ID": 38017, "ELEMENT_SET_NO": 999, "REV_AT_EPOCH": 61337, "BSTAR": 0.0058056244, "MEAN_MOTION_DOT": 0.00023176, "MEAN_MOTION_DDOT": 0}, "tle": {"line1": "1 38017U 97051YD  25342.24743105  .00023176  00000+0  58056-2 0  9997", "line2": "2 38017  86.3413 168.1763 0092103 118.1049 242.9503 14.48737488613376"}}, "geometry": {"type": "Point", "coordinates": [161.3541394862785, -60.170603370929804]}}, {"type": "Feature", "properties": {"norad_id": 38022, "name": "IRIDIUM 33 DEB", "group": "iridium-33-debris", "lat": 0.3950148370309768, "lon": -162.03345490716393, "alt_km": 773.0560473734404, "timestamp": "2025-12-09T04:51:47.877515+00:00", "meta": {"OBJECT_NAME": "IRIDIUM 33 DEB", "OBJECT_ID": "1997-051YJ", "EPOCH": "2025-12-07T08:42:47.311776", "MEAN_MOTION": 14.41201446, "ECCENTRICITY": 0.00469795, "INCLINATION": 86.2687, "RA_OF_ASC_NODE": 18.7976, "ARG_OF_PERICENTER": 67.6005, "MEAN_ANOMALY": 293.0162, "EPHEMERIS_TYPE": 0, "CLASSIFICATION_TYPE": "U", "NORAD_CAT_ID": 38022, "ELEMENT_SET_NO": 999, "REV_AT_EPOCH": 69116, "BSTAR": 0.0015997038, "MEAN_MOTION_DOT": 5.249e-05, "MEAN_MOTION_DDOT": 0}, "tle": {"line1": "1 38022U 97051YJ  25341.36304759  .00005249  00000+0  15997-2 0  9991", "line2": "2 38022  86.2687  18.7976 0046979  67.6005 293.0162 14.41201446691164"}}, "geometry": {"type": "Point", "coordinates": [-162.03345490716393, 0.3950148370309768]}}, {"type": "Feature", "properties": {"norad_id": 38028, "name": "IRIDIUM 33 DEB", "group": "iridium-33-debris", "lat": -79.45823169488159, "lon": -158.00118078947804, "alt_km": 758.5697110530582, "timestamp": "2025-12-09T04:51:47.877525+00:00", "meta": {"OBJECT_NAME": "IRIDIUM 33 DEB", "OBJECT_ID": "1997-051YQ", "EPOCH": "2025-12-06T19:12:19.598112", "MEAN_MOTION": 14.46166745, "ECCENTRICITY": 0.00294822, "INCLINATION": 86.3276, "RA_OF_ASC_NODE": 2.8528, "ARG_OF_PERICENTER": 139.7765, "MEAN_ANOMALY": 220.5627, "EPHEMERIS_TYPE": 0, "CLASSIFICATION_TYPE": "U", "NORAD_CAT_ID": 38028, "ELEMENT_SET_NO": 999, "REV_AT_EPOCH": 65409, "BSTAR": 0.00054862399, "MEAN_MOTION_DOT": 1.991e-05, "MEAN_MOTION_DDOT": 0}, "tle": {"line1": "1 38028U 97051YQ  25340.80022683  .00001991  00000+0  54862-3 0  9993", "line2": "2 38028  86.3276   2.8528 0029482 139.7765 220.5627 14.46166745654095"}}, "geometry": {"type": "Point", "coordinates": [-158.00118078947804, -79.45823169488159]}}, {"type": "Feature", "properties": {"norad_id": 38228, "name": "IRIDIUM 33 DEB", "group": "iridium-33-debris", "lat": 73.24321216987344, "lon": 62.40048324162062, "alt_km": 821.4726714359649, "timestamp": "2025-12-09T04:51:47.877536+00:00", "meta": {"OBJECT_NAME": "IRIDIUM 33 DEB", "OBJECT_ID": "1997-051ZC", "EPOCH": "2025-12-08T11:59:08.255904", "MEAN_MOTION": 14.27257685, "ECCENTRICITY": 0.00637921, "INCLINATION": 86.2952, "RA_OF_ASC_NODE": 50.2726, "ARG_OF_PERICENTER": 203.1298, "MEAN_ANOMALY": 220.077, "EPHEMERIS_TYPE": 0, "CLASSIFICATION_TYPE": "U", "NORAD_CAT_ID": 38228, "ELEMENT_SET_NO": 999, "REV_AT_EPOCH": 84721, "BSTAR": 0.00059886698, "MEAN_MOTION_DOT": 1.514e-05, "MEAN_MOTION_DDOT": 0}, "tle": {"line1": "1 38228U 97051ZC  25342.49940111  .00001514  00000+0  59887-3 0  9990", "line2": "2 38228  86.2952  50.2726 0063792 203.1298 220.0770 14.27257685847218"}}, "geometry": {"type": "Point", "coordinates": [62.40048324162062, 73.24321216987344]}}, {"type": "Feature", "properties": {"norad_id": 38241, "name": "IRIDIUM 33 DEB", "group": "iridium-33-debris", "lat": 5.007786378731946, "lon": -7.516923613755629, "alt_km": 710.9346250067638, "timestamp": "2025-12-09T04:51:47.877546+00:00", "meta": {"OBJECT_NAME": "IRIDIUM 33 DEB", "OBJECT_ID": "1997-051ZR", "EPOCH": "2025-12-05T18:18:10.298016", "MEAN_MOTION": 14.54799988, "ECCENTRICITY": 0.00056722, "INCLINATION": 86.3224, "RA_OF_ASC_NODE": 353.6772, "ARG_OF_PERICENTER": 87.2865, "MEAN_ANOMALY": 272.8992, "EPHEMERIS_TYPE": 0, "CLASSIFICATION_TYPE": "U", "NORAD_CAT_ID": 38241, "ELEMENT_SET_NO": 999, "REV_AT_EPOCH": 60099, "BSTAR": 0.0014749391, "MEAN_MOTION_DOT": 6.345e-05, "MEAN_MOTION_DDOT": 0}, "tle": {"line1": "1 38241U 97051ZR  25339.76261919  .00006345  00000+0  14749-2 0  9997", "line2": "2 38241  86.3224 353.6772 0005672  87.2865 272.8992 14.54799988600991"}}, "geometry": {"type": "Point", "coordinates": [-7.516923613755629, 5.007786378731946]}}, {"type": "Feature", "properties": {"norad_id": 38474, "name": "IRIDIUM 33 DEB", "group": "iridium-33-debris", "lat": -11.854648446246422, "lon": -167.6275877599359, "alt_km": 728.9247344573159, "timestamp": "2025-12-09T04:51:47.877556+00:00", "meta": {"OBJECT_NAME": "IRIDIUM 33 DEB", "OBJECT_ID": "1997-051AAB", "EPOCH": "2025-12-08T08:07:09.463872", "MEAN_MOTION": 14.50663948, "ECCENTRICITY": 0.00281226, "INCLINATION": 86.3436, "RA_OF_ASC_NODE": 11.9798, "ARG_OF_PERICENTER": 101.673, "MEAN_ANOMALY": 258.7634, "EPHEMERIS_TYPE": 0, "CLASSIFICATION_TYPE": "U", "NORAD_CAT_ID": 38474, "ELEMENT_SET_NO": 999, "REV_AT_EPOCH": 65254, "BSTAR": 0.0008115799, "MEAN_MOTION_DOT": 3.222e-05, "MEAN_MOTION_DDOT": 0}, "tle": {"line1": "1 38474U 97051AAB 25342.33830398  .00003222  00000+0  81158-3 0  9995", "line2": "2 38474  86.3436  11.9798 0028122 101.6730 258.7634 14.50663948652549"}}, "geometry": {"type": "Point", "coordinates": [-167.6275877599359, -11.854648446246422]}}, {"type": "Feature", "properties": {"norad_id": 39777, "name": "IRIDIUM 33 DEB", "group": "iridium-33-debris", "lat": 14.610747388875499, "lon": -4.296070707663011, "alt_km": 670.7613504524052, "timestamp": "2025-12-09T04:51:47.877566+00:00", "meta": {"OBJECT_NAME": "IRIDIUM 33 DEB", "OBJECT_ID": "1997-051AAJ", "EPOCH": "2025-12-08T19:51:31.399200", "MEAN_MOTION": 14.56281505, "ECCENTRICITY": 0.0059737, "INCLINATION": 85.9628, "RA_OF_ASC_NODE": 176.9409, "ARG_OF_PERICENTER": 199.9226, "MEAN_ANOMALY": 159.965, "EPHEMERIS_TYPE": 0, "CLASSIFICATION_TYPE": "U", "NORAD_CAT_ID": 39777, "ELEMENT_SET_NO": 999, "REV_AT_EPOCH": 60128, "BSTAR": 0.003694, "MEAN_MOTION_DOT": 0.00016794, "MEAN_MOTION_DDOT": 0}, "tle": {"line1": "1 39777U 97051AAJ 25342.82744675  .00016794  00000+0  36940-2 0  9994", "line2": "2 39777  85.9628 176.9409 0059737 199.9226 159.9650 14.56281505601287"}}, "geometry": {"type": "Point", "coordinates": [-4.296070707663011, 14.610747388875499]}}]}